CCSDS_OMM_VERS,COMMENT,CREATION_DATE,ORIGINATOR,OBJECT_NAME,OBJECT_ID,CENTER_NAME,REF_FRAME,TIME_SYSTEM,MEAN_ELEMENT_THEORY,EPOCH,MEAN_MOTION,ECCENTRICITY,INCLINATION,RA_OF_ASC_NODE,ARG_OF_PERICENTER,MEAN_ANOMALY,EPHEMERIS_TYPE,CLASSIFICATION_TYPE,NORAD_CAT_ID,ELEMENT_SET_NO,REV_AT_EPOCH,BSTAR,MEAN_MOTION_DOT,MEAN_MOTION_DDOT,SEMIMAJOR_AXIS,PERIOD,APOAPSIS,PERIAPSIS,OBJECT_TYPE,RCS_SIZE,COUNTRY_CODE,LAUNCH_DATE,SITE,DECAY_DATE,FILE,GP_ID,TLE_LINE0,TLE_LINE1,TLE_LINE2
"2.0","GENERATED VIA SPACE-TRACK.ORG API","2020-05-30T03:45:11","18 SPCS","ORBCOMM FM 30","1999-065A","EARTH","TEME","UTC","SGP4","2020-05-29T16:15:26.166816","14.32881772","0.00056710","45.0316","135.7678","203.1795","156.8797","0","U","25980","999","6966","0.00004564000000","-0.00000015","0.0000000000000","7160.251","100.496","786.176","778.055","PAYLOAD","MEDIUM","ORB","1999-12-04","AFETR","","2756215","154768109","0 ORBCOMM FM 30","1 25980U 99065A   20150.67738619 -.00000015 +00000-0 +45640-4 0  9998","2 25980 045.0316 135.7678 0005671 203.1795 156.8797 14.32881772069661"
"2.0","GENERATED VIA SPACE-TRACK.ORG API","2020-05-29T20:05:12","18 SPCS","ORBCOMM FM 30","1999-065A","EARTH","TEME","UTC","SGP4","2020-05-29T11:14:14.190720","14.32881704","0.00056530","45.0315","136.7507","202.1430","157.9174","0","U","25980","999","6963","0.00004664500000","-0.00000012","0.0000000000000","7160.251","100.496","786.164","778.068","PAYLOAD","MEDIUM","ORB","1999-12-04","AFETR","","2756089","154725572","0 ORBCOMM FM 30","1 25980U 99065A   20150.46821980 -.00000012 +00000-0 +46645-4 0  9992","2 25980 045.0315 136.7507 0005653 202.1430 157.9174 14.32881704069630"
"2.0","GENERATED VIA SPACE-TRACK.ORG API","2020-05-29T20:05:12","18 SPCS","CZ-4 DEB","1999-057SK","EARTH","TEME","UTC","SGP4","2020-05-29T06:57:35.054784","14.46835242","0.01144780","98.7035","164.3098","243.8857","173.4539","0","U","35331","999","91440","0.00016355000000","0.00000590","0.0000000000000","7114.140","99.527","817.447","654.564","DEBRIS","SMALL","PRC","1999-10-14","TSC","","2756089","154730808","0 CZ-4 DEB","1 35331U 99057SK  20150.28998906 +.00000590 +00000-0 +16355-3 0  9991","2 35331 098.7035 164.3098 0114478 243.8857 173.4539 14.46835242914401"
"2.0","GENERATED VIA SPACE-TRACK.ORG API","2020-05-29T02:50:59","18 SPCS","CZ-4 DEB","1999-057SK","EARTH","TEME","UTC","SGP4","2020-05-28T19:39:15.152832","14.46834540","0.01144390","98.7035","163.8255","245.3271","239.8451","0","U","35331","999","33656","0.00016175000000","0.00000583","0.0000000000000","7114.143","99.527","817.421","654.594","DEBRIS","SMALL","PRC","1999-10-14","TSC","","2755619","154699963","0 CZ-4 DEB","1 35331U 99057SK  20149.81892538 +.00000583 +00000-0 +16175-3 0  9994","2 35331 098.7035 163.8255 0114439 245.3271 239.8451 14.46834540336569"
"2.0","GENERATED VIA SPACE-TRACK.ORG API","2020-05-28T11:16:10","18 SPCS","ORBCOMM FM 30","1999-065A","EARTH","TEME","UTC","SGP4","2020-05-28T03:26:38.298048","14.32881279","0.00055900","45.0314","142.9762","196.0035","164.0636","0","U","25980","999","6997","0.00004565300000","-0.00000015","0.0000000000000","7160.253","100.496","786.120","778.115","PAYLOAD","MEDIUM","ORB","1999-12-04","AFETR","","2755274","154659750","0 ORBCOMM FM 30","1 25980U 99065A   20149.14349882 -.00000015  00000-0  45653-4 0  9992","2 25980  45.0314 142.9762 0005590 196.0035 164.0636 14.32881279 69979"
"2.0","GENERATED VIA SPACE-TRACK.ORG API","2020-05-28T20:22:04","18 SPCS","ORBCOMM FM 30","1999-065A","EARTH","TEME","UTC","SGP4","2020-05-27T10:42:38.350080","14.32881090","0.00055410","45.0313","146.2529","192.6605","167.4103","0","U","25980","999","6934","0.00004829300000","-0.00000008","0.0000000000000","7160.253","100.496","786.086","778.151","PAYLOAD","MEDIUM","ORB","1999-12-04","AFETR","","2755450","154671102","0 ORBCOMM FM 30","1 25980U 99065A   20148.44627720 -.00000008 +00000-0 +48293-4 0  9999","2 25980 045.0313 146.2529 0005541 192.6605 167.4103 14.32881090069345"
"2.0","GENERATED VIA SPACE-TRACK.ORG API","2020-05-27T18:41:30","18 SPCS","ORBCOMM FM 30","1999-065A","EARTH","TEME","UTC","SGP4","2020-05-27T07:21:50.359968","14.32881035","0.00055320","45.0313","146.9082","192.0070","168.0645","0","U","25980","999","6932","0.00004800200000","-0.00000008","0.0000000000000","7160.253","100.496","786.079","778.157","PAYLOAD","MEDIUM","ORB","1999-12-04","AFETR","","2754905","154618924","0 ORBCOMM FM 30","1 25980U 99065A   20148.30683287 -.00000008 +00000-0 +48002-4 0  9992","2 25980 045.0313 146.9082 0005532 192.0070 168.0645 14.32881035069321"
"2.0","GENERATED VIA SPACE-TRACK.ORG API","2020-05-27T02:00:23","18 SPCS","CZ-4 DEB","1999-057SK","EARTH","TEME","UTC","SGP4","2020-05-26T21:09:39.155616","14.46831841","0.01143830","98.7037","161.8343","251.2348","229.5522","0","U","35331","999","33628","0.00016135000000","0.00000581","0.0000000000000","7114.151","99.527","817.390","654.643","DEBRIS","SMALL","PRC","1999-10-14","TSC","","2754631","154597408","0 CZ-4 DEB","1 35331U 99057SK  20147.88170319 +.00000581 +00000-0 +16135-3 0  9999","2 35331 098.7037 161.8343 0114383 251.2348 229.5522 14.46831841336281"
"2.0","GENERATED VIA SPACE-TRACK.ORG API","2020-05-27T06:26:09","18 SPCS","CZ-4 DEB","1999-057SK","EARTH","TEME","UTC","SGP4","2020-05-26T21:09:39.155616","14.46831841","0.01143830","98.7037","161.8343","251.2348","229.5522","0","U","35331","999","91406","0.00016135000000","0.00000581","0.0000000000000","7114.151","99.527","817.390","654.643","DEBRIS","SMALL","PRC","1999-10-14","TSC","","2754687","154606334","0 CZ-4 DEB","1 35331U 99057SK  20147.88170319  .00000581  00000-0  16135-3 0  9999","2 35331  98.7037 161.8343 0114383 251.2348 229.5522 14.46831841914069"
"2.0","GENERATED VIA SPACE-TRACK.ORG API","2020-05-26T20:07:17","18 SPCS","ORBCOMM FM 30","1999-065A","EARTH","TEME","UTC","SGP4","2020-05-26T11:17:02.412384","14.32880814","0.00054740","45.0313","150.8402","187.9674","172.1086","0","U","25980","999","6920","0.00005063700000","-0.00000001","0.0000000000000","7160.254","100.496","786.039","778.200","PAYLOAD","MEDIUM","ORB","1999-12-04","AFETR","","2754331","154565289","0 ORBCOMM FM 30","1 25980U 99065A   20147.47016681 -.00000001 +00000-0 +50637-4 0  9997","2 25980 045.0313 150.8402 0005474 187.9674 172.1086 14.32880814069205"
"2.0","GENERATED VIA SPACE-TRACK.ORG API","2020-05-26T22:46:10","18 SPCS","ORBCOMM FM 30","1999-065A","EARTH","TEME","UTC","SGP4","2020-05-26T11:17:02.412384","14.32880814","0.00054740","45.0313","150.8402","187.9674","172.1086","0","U","25980","999","6973","0.00005063700000","-0.00000001","0.0000000000000","7160.254","100.496","786.039","778.200","PAYLOAD","MEDIUM","ORB","1999-12-04","AFETR","","2754452","154581065","0 ORBCOMM FM 30","1 25980U 99065A   20147.47016681 -.00000001  00000-0  50637-4 0  9997","2 25980  45.0313 150.8402 0005474 187.9674 172.1086 14.32880814 69733"
"2.0","GENERATED VIA SPACE-TRACK.ORG API","2020-05-25T18:01:58","18 SPCS","ORBCOMM FM 30","1999-065A","EARTH","TEME","UTC","SGP4","2020-05-25T03:29:26.469600","14.32880449","0.00053850","45.0314","157.0656","181.5335","178.5496","0","U","25980","999","6901","0.00005137400000","0.00000001","0.0000000000000","7160.255","100.496","785.976","778.264","PAYLOAD","MEDIUM","ORB","1999-12-04","AFETR","","2754111","154521791","0 ORBCOMM FM 30","1 25980U 99065A   20146.14544525 +.00000001 +00000-0 +51374-4 0  9991","2 25980 045.0314 157.0656 0005385 181.5335 178.5496 14.32880449069019"
"2.0","GENERATED VIA SPACE-TRACK.ORG API","2020-05-25T15:46:09","18 SPCS","ORBCOMM FM 30","1999-065A","EARTH","TEME","UTC","SGP4","2020-05-25T03:29:26.469600","14.32880449","0.00053850","45.0314","157.0656","181.5335","178.5496","0","U","25980","999","6954","0.00005137400000","0.00000001","0.0000000000000","7160.255","100.496","785.976","778.264","PAYLOAD","MEDIUM","ORB","1999-12-04","AFETR","","2754076","154513950","0 ORBCOMM FM 30","1 25980U 99065A   20146.14544525  .00000001  00000-0  51374-4 0  9991","2 25980  45.0314 157.0656 0005385 181.5335 178.5496 14.32880449 69547"
"2.0","GENERATED VIA SPACE-TRACK.ORG API","2020-05-25T02:43:53","18 SPCS","ORBCOMM FM 30","1999-065A","EARTH","TEME","UTC","SGP4","2020-05-24T12:25:50.490336","14.32880273","0.00053310","45.0314","160.0146","178.3357","181.7508","0","U","25980","999","6892","0.00005088500000","-0.00000001","0.0000000000000","7160.256","100.496","785.938","778.304","PAYLOAD","MEDIUM","ORB","1999-12-04","AFETR","","2753964","154498593","0 ORBCOMM FM 30","1 25980U 99065A   20145.51794549 -.00000001 +00000-0 +50885-4 0  9991","2 25980 045.0314 160.0146 0005331 178.3357 181.7508 14.32880273068920"
"2.0","GENERATED VIA SPACE-TRACK.ORG API","2020-05-24T14:16:08","18 SPCS","CZ-4 DEB","1999-057SK","EARTH","TEME","UTC","SGP4","2020-05-24T05:48:46.154304","14.46828131","0.01143250","98.7038","159.1211","259.2928","161.3560","0","U","35331","999","91367","0.00016234000000","0.00000585","0.0000000000000","7114.164","99.528","817.361","654.696","DEBRIS","SMALL","PRC","1999-10-14","TSC","","2753836","154468654","0 CZ-4 DEB","1 35331U 99057SK  20145.24220086  .00000585  00000-0  16234-3 0  9998","2 35331  98.7038 159.1211 0114325 259.2928 161.3560 14.46828131913671"
"2.0","GENERATED VIA SPACE-TRACK.ORG API","2020-05-24T08:26:08","18 SPCS","ORBCOMM FM 30","1999-065A","EARTH","TEME","UTC","SGP4","2020-05-24T02:23:26.491488","14.32880173","0.00053050","45.0315","161.9805","176.2958","183.7929","0","U","25980","999","6939","0.00005095500000","0.00000000","0.0000000000000","7160.256","100.496","785.920","778.323","PAYLOAD","MEDIUM","ORB","1999-12-04","AFETR","","2753810","154468163","0 ORBCOMM FM 30","1 25980U 99065A   20145.09961217 -.00000000  00000-0  50955-4 0  9999","2 25980  45.0315 161.9805 0005305 176.2958 183.7929 14.32880173 69398"
